OPS 6582 (TRANSIT 5B-5) 
1 00965U 64083D   23062.41449587  .00000110  00000+0  14134-3 0  9993
2 00965  90.0347 196.2778 0040926 189.4143 230.1421 13.56808662880639
OSCAR 7 (AO-7)          
1 07530U 74089B   23062.46434751 -.00000027  00000+0  12102-3 0  9998
2 07530 101.9393  48.4607 0011918 266.0839 212.2388 12.53661736209924
UOSAT 2 (UO-11)         
1 14781U 84021B   23062.44902387  .00002948  00000+0  35658-3 0  9998
2 14781  97.6467  43.5726 0008083 177.7001 182.4253 14.84393550 78452
NOAA 9                  
1 15427U 84123A   23062.52951260  .00000326  00000+0  18770-3 0  9996
2 15427  99.0803  44.4341 0015299 148.0464 320.9697 14.16302308973286
LUSAT (LO-19)           
1 20442U 90005G   23062.47541073  .00000445  00000+0  17861-3 0  9998
2 20442  98.8321  36.8021 0012626 125.4581 234.7782 14.33181688730206
ITAMSAT (IO-26)         
1 22826U 93061D   23062.32500176  .00000302  00000+0  13320-3 0  9992
2 22826  98.8515 103.3002 0009035  10.2531 349.8833 14.30610119535429
RADIO ROSTO (RS-15)     
1 23439U 94085A   23062.54936844 -.00000039  00000+0  10000-3 0  9999
2 23439  64.8162  86.5494 0165856 228.5577 130.0997 11.27573806160706
JAS-2 (FO-29)           
1 24278U 96046B   23062.45336687  .00000070  00000+0  10955-3 0  9992
2 24278  98.5203  55.4569 0349744 331.3694  26.8628 13.53135095310636
NOAA 15                 
1 25338U 98030A   23062.78936333  .00000331  00000+0  15636-3 0  9996
2 25338  98.6191  93.5881 0009292 259.7185 100.2948 14.26255795290236
TECHSAT 1B (GO-32)      
1 25397U 98043D   23062.46218764  .00000238  00000+0  12384-3 0  9994
2 25397  98.8553  19.0857 0002406  83.4525 276.6927 14.23829609280288
ISS (ZARYA)             
1 25544U 98067A   23062.92194759  .00020759  00000+0  37547-3 0  9990
2 25544  51.6414 129.9587 0005914  53.9758 116.7112 15.49626938385468
ORSTED                  
1 25635U 99008B   23062.44975951  .00001344  00000+0  32176-3 0  9997
2 25635  96.4473 231.4781 0138997  74.4028 287.2462 14.48832660267776
PHASE 3D (AO-40)        
1 26609U 00072B   23062.30222397 -.00000406  00000+0  00000+0 0  9992
2 26609   5.6601 202.7377 7946126 129.4676 331.3407  1.25588998102404
PCSAT (NO-44)           
1 26931U 01043C   23062.51582039  .00000350  00000+0  16484-3 0  9998
2 26931  67.0501 109.6631 0006508 283.4662  76.5714 14.30838099118463
SAUDISAT 1C (SO-50)     
1 27607U 02058C   23062.48148340  .00003223  00000+0  45566-3 0  9990
2 27607  64.5539 228.9099 0077200 245.3319 113.9731 14.76830299 86613
CUTE-1 (CO-55)          
1 27844U 03031E   23062.47781243  .00000754  00000+0  35644-3 0  9991
2 27844  98.6807  71.2765 0010972  74.2415 285.9973 14.22652848 20709
CUBESAT XI-IV (CO-57)   
1 27848U 03031J   23061.96055186  .00000579  00000+0  28082-3 0  9991
2 27848  98.6848  71.2206 0010889  88.8078 271.4347 14.22179951 20402
MOZHAYETS 4 (RS-22)     
1 27939U 03042A   23062.82281238  .00002472  00000+0  43977-3 0  9993
2 27939  98.2227 209.1210 0013612 109.0841 251.1836 14.67968430 39087
INMARSAT 4-F1           
1 28628U 05009A   23062.43044709 -.00000265  00000+0  00000+0 0  9996
2 28628   3.8177  37.5945 0003016 307.0063 114.7771  1.00272616 65628
NOAA 18                 
1 28654U 05018A   23062.76450506  .00000364  00000+0  21946-3 0  9992
2 28654  98.9188 137.6368 0013438 321.0659  38.9544 14.12875632916681
CUBESAT XI-V            
1 28895U 05043F   23062.16963458  .00003207  00000+0  60465-3 0  9994
2 28895  98.1345 195.1846 0017008  49.4236 310.8444 14.65115691925281
METOP-A                 
1 29499U 06044A   23062.79515681  .00002771  00000+0  37166-3 0  9994
2 29499  98.4154 120.2745 0194448 274.2694 179.2889 14.68012258851567
CARTOSAT-2 (IRS-P7)     
1 29710U 07001B   23062.34562123  .00061069  00000+0  10997-2 0  9995
2 29710  97.8772 190.0601 0119629 222.6633 136.5276 15.41961893875939
CAPE-1                  
1 31130U 07012P   23062.41663051  .00002429  00000+0  51007-3 0  9999
2 31130  98.2973   6.6402 0092998 210.0804 149.5035 14.57874712842814
CARTOSAT-2A             
1 32783U 08021A   23062.79695145  .00001563  00000+0  21999-3 0  9990
2 32783  97.9303 124.8977 0013035  52.5835 307.6547 14.78662090801345
CUTE-1.7+APD II (CO-65) 
1 32785U 08021C   23062.42171624  .00006377  00000+0  64679-3 0  9993
2 32785  97.6931  30.7962 0014394  93.8247 266.4618 14.91141397805054
COMPASS-1               
1 32787U 08021E   23062.47277249  .00016016  00000+0  13253-2 0  9992
2 32787  97.5899  41.4392 0010899   9.9753 350.1684 14.98927268806804
AAUSAT-II               
1 32788U 08021F   23062.40709940  .00018303  00000+0  14317-2 0  9997
2 32788  97.5560  44.4209 0007623   8.5316 351.6037 15.01082874807226
DELFI-C3 (DO-64)        
1 32789U 08021G   23062.27879899  .00063535  00000+0  25560-2 0  9993
2 32789  97.3177  85.3157 0010219 129.6911 230.5230 15.24608042811182
SEEDS II (CO-66)        
1 32791U 08021J   23061.92167691  .00009429  00000+0  86617-3 0  9990
2 32791  97.6437  35.5789 0014097  53.7383 306.5138 14.94954540805775
YUBILEINY (RS-30)       
1 32953U 08025A   23062.85380648  .00000024  00000+0  10000-3 0  9991
2 32953  82.5052  22.6005 0020610  55.1555 305.1469 12.43119565670565
FENGYUN 3A              
1 32958U 08026A   23062.64399580  .00000333  00000+0  18039-3 0  9992
2 32958  98.5417  20.1887 0008820   1.7323 358.3882 14.18815224765082
PRISM (HITOMI)          
1 33493U 09002B   23062.75789293  .00018763  00000+0  13696-2 0  9997
2 33493  98.2516  70.0724 0018316  44.3991 315.8697 15.03603265767891
STARS (KUKAI)           
1 33498U 09002G   23062.32031366  .00004935  00000+0  64054-3 0  9997
2 33498  98.1462 323.4718 0011444 130.3436 229.8777 14.81172273759730
KKS-1 (KISEKI)          
1 33499U 09002H   23062.77298110  .00002478  00000+0  36188-3 0  9996
2 33499  98.1872 313.6916 0008206 197.1362 162.9571 14.76647994758939
NOAA 19                 
1 33591U 09005A   23062.86673294  .00000334  00000+0  20509-3 0  9991
2 33591  99.1157 107.0417 0014064 175.5866 184.5432 14.12699420725074
SWISSCUBE               
1 35932U 09051B   23062.40591982  .00002031  00000+0  45853-3 0  9991
2 35932  98.5376 290.1834 0007207 341.0719  19.0210 14.57383608713807
BEESAT-1                
1 35933U 09051C   23062.15640665  .00001831  00000+0  41510-3 0  9990
2 35933  98.5307 291.3564 0005723 357.3772   2.7395 14.57334646713840
ITUPSAT1                
1 35935U 09051E   23062.60912671  .00001638  00000+0  37979-3 0  9990
2 35935  98.5408 291.8022 0008037 356.8334   3.2811 14.56409519713623
XIWANG-1 (HOPE-1)       
1 36122U 09072B   23062.44202664 -.00000029  00000+0  36302-4 0  9992
2 36122 100.2244  29.7169 0008086 104.3459 255.8552 13.16378778634883
CARTOSAT-2B             
1 36795U 10035A   23062.49607090  .00001614  00000+0  22689-3 0  9998
2 36795  97.9252 124.5691 0014132 124.1894 236.0675 14.78669332682345
TISAT 1                 
1 36799U 10035E   23062.51147241  .00009636  00000+0  88780-3 0  9998
2 36799  98.1538 288.0080 0010825 331.0983  28.9636 14.94885383686433
FENGYUN 3B              
1 37214U 10059A   23062.56825744  .00000168  00000+0  11177-3 0  9990
2 37214  99.0910  78.1166 0021951 346.7325  13.3283 14.14303535637582
JUGNU                   
1 37839U 11058B   23062.34451429  .00000631  00000+0  19320-3 0  9997
2 37839  19.9622  45.0711 0019043 131.3398  16.5832 14.12892809588790
SRMSAT                  
1 37841U 11058D   23062.57349806  .00000551  00000+0  15770-3 0  9996
2 37841  19.9714 128.5451 0011766 312.0669 195.1839 14.10842683587878
M-CUBED & EXP-1 PRIME   
1 37855U 11061F   23062.34289922  .00041903  00000+0  15239-2 0  9997
2 37855 101.7068 325.3279 0134022   3.3709 356.8383 15.20006818620441
HORYU-2                 
1 38340U 12025D   23062.19249815  .00005268  00000+0  74060-3 0  9990
2 38340  98.1729 149.3296 0012101 117.4679 242.7763 14.77754644570439
METOP-B                 
1 38771U 12049A   23062.81303815  .00000270  00000+0  14343-3 0  9990
2 38771  98.6930 123.8839 0001027  71.7009  73.3396 14.21495319542574
SARAL                   
1 39086U 13009A   23062.81503257  .00000300  00000+0  12760-3 0  9994
2 39086  98.5462 249.6360 0001114 205.0877 155.0253 14.32144546523609
AAUSAT 3                
1 39087U 13009B   23062.48955047  .00001278  00000+0  44938-3 0  9993
2 39087  98.3846 260.3821 0011683 213.3648 146.6921 14.36546648524765
STRAND-1                
1 39090U 13009E   23062.47759513  .00000745  00000+0  27392-3 0  9999
2 39090  98.3926 258.7117 0008321 214.0767 145.9886 14.35476917524551
BRITE-AUSTRIA           
1 39091U 13009F   23062.39936205  .00000481  00000+0  18233-3 0  9997
2 39091  98.3949 257.8464 0009652 222.1482 137.8962 14.35403037524574
UNIBRITE                
1 39092U 13009G   23062.51399536  .00000478  00000+0  18183-3 0  9992
2 39092  98.3985 257.7713 0008624 216.4167 143.6433 14.35274422524544
SOMP                    
1 39134U 13015E   23062.01404251  .00059033  00000+0  13162-2 0  9994
2 39134  64.8556 286.7957 0021577 244.7893 115.1009 15.42987376546508
BEESAT-3                
1 39135U 13015F   23062.35784381  .00051662  00000+0  15523-2 0  9990
2 39135  64.8641 329.8398 0027567 243.5772 116.2533 15.33736896545658
BEESAT-2                
1 39136U 13015G   23062.88420124  .00046526  00000+0  14859-2 0  9995
2 39136  64.8730 338.2166 0025058 282.2674  77.5653 15.31901614545987
NEE-01 PEGASO           
1 39151U 13018B   23061.95027473  .00003867  00000+0  49274-3 0  9993
2 39151  97.9983 172.0665 0017228 135.0815 225.1795 14.82013614531949
CUBEBUG-1 (CAPITAN BETO)
1 39153U 13018D   23062.89555750  .00006136  00000+0  76075-3 0  9994
2 39153  98.0250 178.5208 0016901 127.0040 233.2723 14.82934959532263
ESTCUBE 1               
1 39161U 13021C   23062.19170922  .00003022  00000+0  46958-3 0  9992
2 39161  97.8824 137.4626 0008824 317.5148  42.5399 14.73747634527563
